KUIPER-00071            
1 64818U 25151C   25333.30629058 -.00003907  00000+0 -48299-3 0  9995
2 64818  51.9011  26.9669 0007243 250.8767 109.1411 14.79960085 20407
KUIPER-00072            
1 64819U 25151D   25333.83335647 -.00011020  00000+0 -14888-2 0  9993
2 64819  51.8996   4.0070 0002480 252.3138  73.5672 14.77912515  4867
KUIPER-00073            
1 64820U 25151E   25333.83335647 -.00029664  00000+0 -40089-2 0  9990
2 64820  51.9013  24.6142 0013016 281.8084 197.0789 14.78484420  5044
KUIPER-00074            
1 64821U 25151F   25333.28638283  .00003403  00000+0  47523-3 0  9994
2 64821  51.9023  14.5702 0013175 299.8411  60.1242 14.79908905 20574
KUIPER-00075            
1 64822U 25151G   25333.85892791  .00058275  00000+0  14270-2 0  9993
2 64822  51.8755 346.6545 0003785 286.8229  73.2343 15.40193560 21018
KUIPER-00076            
1 64823U 25151H   25333.28363838  .00002147  00000+0  31045-3 0  9993
2 64823  51.9030  17.0831 0005540 301.8828  58.1595 14.79959397 20544
KUIPER-00077            
1 64824U 25151J   25333.81848019  .00003688  00000+0  51248-3 0  9990
2 64824  51.9019  19.7164 0005982 250.2303 109.8014 14.79936994 20554
KUIPER-00078            
1 64825U 25151K   25333.31466845  .00005383  00000+0  73382-3 0  9996
2 64825  51.9012  19.4392 0007755 314.6103  45.4226 14.79969083 20512
